HULIANWANG DIGUI-49     
1 65106U 25168A   26065.61636061 -.00000027  00000+0  20921-3 0  9994
2 65106  50.0048 333.8476 0007417 156.3855 203.7359 13.29339009 29046
HULIANWANG DIGUI-50     
1 65107U 25168B   26065.60795768 -.00000039  00000+0  18219-3 0  9994
2 65107  50.0019 333.7466 0008393 142.3532 217.7929 13.29339598 29045
HULIANWANG DIGUI-51     
1 65108U 25168C   26065.59959216 -.00000037  00000+0  18800-3 0  9997
2 65108  50.0056 333.7731 0009749 142.3370 217.8187 13.29339880 29049
HULIANWANG DIGUI-52     
1 65109U 25168D   26065.59135376 -.00000030  00000+0  20170-3 0  9997
2 65109  50.0049 333.7126 0009612 155.2649 204.8685 13.29338504 29042
HULIANWANG DIGUI-53     
1 65110U 25168E   26065.58299892 -.00000034  00000+0  19314-3 0  9994
2 65110  50.0057 333.6910 0008431 144.9012 215.2417 13.29338373 29043
HULIANWANG DIGUI-54     
1 65111U 25168F   26065.63330250 -.00000030  00000+0  20236-3 0  9996
2 65111  50.0007 333.2008 0010000 150.4680 209.6758 13.29335648 29059
HULIANWANG DIGUI-55     
1 65112U 25168G   26065.57456997 -.00000034  00000+0  19492-3 0  9993
2 65112  50.0013 333.5641 0011303 146.0405 214.1192 13.29339091 29044
HULIANWANG DIGUI-56     
1 65113U 25168H   26065.56623609 -.00000035  00000+0  19161-3 0  9993
2 65113  50.0005 333.5051 0010998 168.0083 192.1053 13.29338472 29049
HULIANWANG DIGUI-57     
1 65114U 25168J   26065.62497392 -.00000027  00000+0  20810-3 0  9993
2 65114  50.0032 333.2054 0008745 158.6459 201.4779 13.29335485 29061
HULIANWANG DIGUI-58     
1 65164U 25174A   26065.59644381  .00000034  00000+0  45970-4 0  9995
2 65164  86.4924 286.6774 0001267  88.6744 271.4536 13.24421223 27214
HULIANWANG DIGUI-59     
1 65165U 25174B   26065.60399440  .00000049  00000+0  80768-4 0  9991
2 65165  86.4884 286.6038 0001248  87.8869 272.2408 13.24421424 27211
HULIANWANG DIGUI-60     
1 65166U 25174C   26065.61152201  .00000054  00000+0  92473-4 0  9997
2 65166  86.4916 286.6711 0001224  90.1906 269.9368 13.24421609 27212
HULIANWANG DIGUI-61     
1 65167U 25174D   26065.61913528  .00000067  00000+0  12092-3 0  9997
2 65167  86.4925 286.6913 0001177  89.6398 270.4871 13.24420146 27213
HULIANWANG DIGUI-62     
1 65168U 25174E   26065.62664232  .00000082  00000+0  15710-3 0  9991
2 65168  86.4866 286.5773 0001189  92.4512 267.6758 13.24421501 27212
HULIANWANG DIGUI-63     
1 65169U 25174F   26065.63418198  .00000076  00000+0  14347-3 0  9999
2 65169  86.4919 286.6849 0001202  89.3083 270.8188 13.24421853 27214
HULIANWANG DIGUI-64     
1 65170U 25174G   26065.64173868  .00000076  00000+0  14302-3 0  9995
2 65170  86.4878 286.6072 0001189  91.8112 268.3158 13.24421918 27214
