[{"OBJECT_NAME":"HULIANWANG DIGUI-49","OBJECT_ID":"2025-168A","EPOCH":"2026-03-06T14:47:33.556704","MEAN_MOTION":13.29339009,"ECCENTRICITY":0.00074173,"INCLINATION":50.0048,"RA_OF_ASC_NODE":333.8476,"ARG_OF_PERICENTER":156.3855,"MEAN_ANOMALY":203.7359,"EPHEMERIS_TYPE":0,"CLASSIFICATION_TYPE":"U","NORAD_CAT_ID":65106,"ELEMENT_SET_NO":999,"REV_AT_EPOCH":2904,"BSTAR":0.000209213,"MEAN_MOTION_DOT":-2.7e-7,"MEAN_MOTION_DDOT":0},{"OBJECT_NAME":"HULIANWANG DIGUI-50","OBJECT_ID":"2025-168B","EPOCH":"2026-03-06T14:35:27.543552","MEAN_MOTION":13.29339598,"ECCENTRICITY":0.0008393,"INCLINATION":50.0019,"RA_OF_ASC_NODE":333.7466,"ARG_OF_PERICENTER":142.3532,"MEAN_ANOMALY":217.7929,"EPHEMERIS_TYPE":0,"CLASSIFICATION_TYPE":"U","NORAD_CAT_ID":65107,"ELEMENT_SET_NO":999,"REV_AT_EPOCH":2904,"BSTAR":0.00018219467,"MEAN_MOTION_DOT":-3.9e-7,"MEAN_MOTION_DDOT":0},{"OBJECT_NAME":"HULIANWANG DIGUI-51","OBJECT_ID":"2025-168C","EPOCH":"2026-03-06T14:23:24.762624","MEAN_MOTION":13.2933988,"ECCENTRICITY":0.0009749,"INCLINATION":50.0056,"RA_OF_ASC_NODE":333.7731,"ARG_OF_PERICENTER":142.337,"MEAN_ANOMALY":217.8187,"EPHEMERIS_TYPE":0,"CLASSIFICATION_TYPE":"U","NORAD_CAT_ID":65108,"ELEMENT_SET_NO":999,"REV_AT_EPOCH":2904,"BSTAR":0.00018800309,"MEAN_MOTION_DOT":-3.7e-7,"MEAN_MOTION_DDOT":0},{"OBJECT_NAME":"HULIANWANG DIGUI-52","OBJECT_ID":"2025-168D","EPOCH":"2026-03-06T14:11:32.964864","MEAN_MOTION":13.29338504,"ECCENTRICITY":0.00096125,"INCLINATION":50.0049,"RA_OF_ASC_NODE":333.7126,"ARG_OF_PERICENTER":155.2649,"MEAN_ANOMALY":204.8685,"EPHEMERIS_TYPE":0,"CLASSIFICATION_TYPE":"U","NORAD_CAT_ID":65109,"ELEMENT_SET_NO":999,"REV_AT_EPOCH":2904,"BSTAR":0.00020169708,"MEAN_MOTION_DOT":-3.0e-7,"MEAN_MOTION_DDOT":0},{"OBJECT_NAME":"HULIANWANG DIGUI-53","OBJECT_ID":"2025-168E","EPOCH":"2026-03-06T13:59:31.106688","MEAN_MOTION":13.29338373,"ECCENTRICITY":0.00084315,"INCLINATION":50.0057,"RA_OF_ASC_NODE":333.691,"ARG_OF_PERICENTER":144.9012,"MEAN_ANOMALY":215.2417,"EPHEMERIS_TYPE":0,"CLASSIFICATION_TYPE":"U","NORAD_CAT_ID":65110,"ELEMENT_SET_NO":999,"REV_AT_EPOCH":2904,"BSTAR":0.00019314242,"MEAN_MOTION_DOT":-3.4e-7,"MEAN_MOTION_DDOT":0},{"OBJECT_NAME":"HULIANWANG DIGUI-54","OBJECT_ID":"2025-168F","EPOCH":"2026-03-06T15:11:57.336000","MEAN_MOTION":13.29335648,"ECCENTRICITY":0.00100002,"INCLINATION":50.0007,"RA_OF_ASC_NODE":333.2008,"ARG_OF_PERICENTER":150.468,"MEAN_ANOMALY":209.6758,"EPHEMERIS_TYPE":0,"CLASSIFICATION_TYPE":"U","NORAD_CAT_ID":65111,"ELEMENT_SET_NO":999,"REV_AT_EPOCH":2905,"BSTAR":0.00020235834,"MEAN_MOTION_DOT":-3.0e-7,"MEAN_MOTION_DDOT":0},{"OBJECT_NAME":"HULIANWANG DIGUI-55","OBJECT_ID":"2025-168G","EPOCH":"2026-03-06T13:47:22.845408","MEAN_MOTION":13.29339091,"ECCENTRICITY":0.00113038,"INCLINATION":50.0013,"RA_OF_ASC_NODE":333.5641,"ARG_OF_PERICENTER":146.0405,"MEAN_ANOMALY":214.1192,"EPHEMERIS_TYPE":0,"CLASSIFICATION_TYPE":"U","NORAD_CAT_ID":65112,"ELEMENT_SET_NO":999,"REV_AT_EPOCH":2904,"BSTAR":0.00019492256,"MEAN_MOTION_DOT":-3.4e-7,"MEAN_MOTION_DDOT":0},{"OBJECT_NAME":"HULIANWANG DIGUI-56","OBJECT_ID":"2025-168H","EPOCH":"2026-03-06T13:35:22.798176","MEAN_MOTION":13.29338472,"ECCENTRICITY":0.00109985,"INCLINATION":50.0005,"RA_OF_ASC_NODE":333.5051,"ARG_OF_PERICENTER":168.0083,"MEAN_ANOMALY":192.1053,"EPHEMERIS_TYPE":0,"CLASSIFICATION_TYPE":"U","NORAD_CAT_ID":65113,"ELEMENT_SET_NO":999,"REV_AT_EPOCH":2904,"BSTAR":0.00019160684,"MEAN_MOTION_DOT":-3.5e-7,"MEAN_MOTION_DDOT":0},{"OBJECT_NAME":"HULIANWANG DIGUI-57","OBJECT_ID":"2025-168J","EPOCH":"2026-03-06T14:59:57.746688","MEAN_MOTION":13.29335485,"ECCENTRICITY":0.00087459,"INCLINATION":50.0032,"RA_OF_ASC_NODE":333.2054,"ARG_OF_PERICENTER":158.6459,"MEAN_ANOMALY":201.4779,"EPHEMERIS_TYPE":0,"CLASSIFICATION_TYPE":"U","NORAD_CAT_ID":65114,"ELEMENT_SET_NO":999,"REV_AT_EPOCH":2906,"BSTAR":0.00020810372,"MEAN_MOTION_DOT":-2.7e-7,"MEAN_MOTION_DDOT":0},{"OBJECT_NAME":"HULIANWANG DIGUI-58","OBJECT_ID":"2025-174A","EPOCH":"2026-03-06T14:18:52.745184","MEAN_MOTION":13.24421223,"ECCENTRICITY":0.00012679,"INCLINATION":86.4924,"RA_OF_ASC_NODE":286.6774,"ARG_OF_PERICENTER":88.6744,"MEAN_ANOMALY":271.4536,"EPHEMERIS_TYPE":0,"CLASSIFICATION_TYPE":"U","NORAD_CAT_ID":65164,"ELEMENT_SET_NO":999,"REV_AT_EPOCH":2721,"BSTAR":4.5970289e-5,"MEAN_MOTION_DOT":3.4e-7,"MEAN_MOTION_DDOT":0},{"OBJECT_NAME":"HULIANWANG DIGUI-59","OBJECT_ID":"2025-174B","EPOCH":"2026-03-06T14:29:45.116160","MEAN_MOTION":13.24421424,"ECCENTRICITY":0.0001248,"INCLINATION":86.4884,"RA_OF_ASC_NODE":286.6038,"ARG_OF_PERICENTER":87.8869,"MEAN_ANOMALY":272.2408,"EPHEMERIS_TYPE":0,"CLASSIFICATION_TYPE":"U","NORAD_CAT_ID":65165,"ELEMENT_SET_NO":999,"REV_AT_EPOCH":2721,"BSTAR":8.0767685e-5,"MEAN_MOTION_DOT":4.9e-7,"MEAN_MOTION_DDOT":0},{"OBJECT_NAME":"HULIANWANG DIGUI-60","OBJECT_ID":"2025-174C","EPOCH":"2026-03-06T14:40:35.501664","MEAN_MOTION":13.24421609,"ECCENTRICITY":0.00012249,"INCLINATION":86.4916,"RA_OF_ASC_NODE":286.6711,"ARG_OF_PERICENTER":90.1906,"MEAN_ANOMALY":269.9368,"EPHEMERIS_TYPE":0,"CLASSIFICATION_TYPE":"U","NORAD_CAT_ID":65166,"ELEMENT_SET_NO":999,"REV_AT_EPOCH":2721,"BSTAR":9.2472599e-5,"MEAN_MOTION_DOT":5.4e-7,"MEAN_MOTION_DDOT":0},{"OBJECT_NAME":"HULIANWANG DIGUI-61","OBJECT_ID":"2025-174D","EPOCH":"2026-03-06T14:51:33.288192","MEAN_MOTION":13.24420146,"ECCENTRICITY":0.00011771,"INCLINATION":86.4925,"RA_OF_ASC_NODE":286.6913,"ARG_OF_PERICENTER":89.6398,"MEAN_ANOMALY":270.4871,"EPHEMERIS_TYPE":0,"CLASSIFICATION_TYPE":"U","NORAD_CAT_ID":65167,"ELEMENT_SET_NO":999,"REV_AT_EPOCH":2721,"BSTAR":0.00012092371,"MEAN_MOTION_DOT":6.7e-7,"MEAN_MOTION_DDOT":0},{"OBJECT_NAME":"HULIANWANG DIGUI-62","OBJECT_ID":"2025-174E","EPOCH":"2026-03-06T15:02:21.896448","MEAN_MOTION":13.24421501,"ECCENTRICITY":0.0001189,"INCLINATION":86.4866,"RA_OF_ASC_NODE":286.5773,"ARG_OF_PERICENTER":92.4512,"MEAN_ANOMALY":267.6758,"EPHEMERIS_TYPE":0,"CLASSIFICATION_TYPE":"U","NORAD_CAT_ID":65168,"ELEMENT_SET_NO":999,"REV_AT_EPOCH":2721,"BSTAR":0.00015710233,"MEAN_MOTION_DOT":8.2e-7,"MEAN_MOTION_DDOT":0},{"OBJECT_NAME":"HULIANWANG DIGUI-63","OBJECT_ID":"2025-174F","EPOCH":"2026-03-06T15:13:13.323072","MEAN_MOTION":13.24421853,"ECCENTRICITY":0.00012023,"INCLINATION":86.4919,"RA_OF_ASC_NODE":286.6849,"ARG_OF_PERICENTER":89.3083,"MEAN_ANOMALY":270.8188,"EPHEMERIS_TYPE":0,"CLASSIFICATION_TYPE":"U","NORAD_CAT_ID":65169,"ELEMENT_SET_NO":999,"REV_AT_EPOCH":2721,"BSTAR":0.00014346885,"MEAN_MOTION_DOT":7.6e-7,"MEAN_MOTION_DDOT":0},{"OBJECT_NAME":"HULIANWANG DIGUI-64","OBJECT_ID":"2025-174G","EPOCH":"2026-03-06T15:24:06.221952","MEAN_MOTION":13.24421918,"ECCENTRICITY":0.00011894,"INCLINATION":86.4878,"RA_OF_ASC_NODE":286.6072,"ARG_OF_PERICENTER":91.8112,"MEAN_ANOMALY":268.3158,"EPHEMERIS_TYPE":0,"CLASSIFICATION_TYPE":"U","NORAD_CAT_ID":65170,"ELEMENT_SET_NO":999,"REV_AT_EPOCH":2721,"BSTAR":0.00014301909,"MEAN_MOTION_DOT":7.6e-7,"MEAN_MOTION_DDOT":0}]
